{
  "type": "FeatureCollection",
  "name": "cadastral_sample_parcels",
  "crs": {
    "type": "name",
    "properties": {
      "name": "urn:ogc:def:crs:OGC:1.3:CRS84"
    }
  },
  "features": [
    {
      "type": "Feature",
      "id": "PARCEL-KA-BLR-001",
      "properties": {
        "id": "PARCEL-KA-BLR-001",
        "ulpin": "29-572-0012-9841",
        "survey_no": "101/1A",
        "owner_name": "Ramesh Kumar Sharma",
        "land_use": "Residential",
        "area_sqm": 482.5,
        "perimeter_m": 88.4,
        "status": "approved",
        "confidence_score": 0.96,
        "extracted_date": "2026-02-15",
        "source": "AI-SAM-HighRes"
      },
      "geometry": {
        "type": "Polygon",
        "coordinates": [
          [
            [77.62010, 12.93510],
            [77.62035, 12.93510],
            [77.62035, 12.93490],
            [77.62010, 12.93490],
            [77.62010, 12.93510]
          ]
        ]
      }
    },
    {
      "type": "Feature",
      "id": "PARCEL-KA-BLR-002",
      "properties": {
        "id": "PARCEL-KA-BLR-002",
        "ulpin": "29-572-0012-9842",
        "survey_no": "101/1B",
        "owner_name": "Sunita Lakshmi Rao",
        "land_use": "Residential",
        "area_sqm": 510.2,
        "perimeter_m": 92.0,
        "status": "approved",
        "confidence_score": 0.94,
        "extracted_date": "2026-02-15",
        "source": "AI-SAM-HighRes"
      },
      "geometry": {
        "type": "Polygon",
        "coordinates": [
          [
            [77.62038, 12.93510],
            [77.62065, 12.93510],
            [77.62065, 12.93490],
            [77.62038, 12.93490],
            [77.62038, 12.93510]
          ]
        ]
      }
    },
    {
      "type": "Feature",
      "id": "PARCEL-KA-BLR-003",
      "properties": {
        "id": "PARCEL-KA-BLR-003",
        "ulpin": "29-572-0012-9843",
        "survey_no": "102/2",
        "owner_name": "Karnataka Power & Infra Ltd",
        "land_use": "Commercial / Tech Park",
        "area_sqm": 1420.8,
        "perimeter_m": 154.2,
        "status": "approved",
        "confidence_score": 0.98,
        "extracted_date": "2026-02-16",
        "source": "AI-SAM-HighRes"
      },
      "geometry": {
        "type": "Polygon",
        "coordinates": [
          [
            [77.62010, 12.93485],
            [77.62070, 12.93485],
            [77.62070, 12.93460],
            [77.62010, 12.93460],
            [77.62010, 12.93485]
          ]
        ]
      }
    },
    {
      "type": "Feature",
      "id": "PARCEL-KA-BLR-004",
      "properties": {
        "id": "PARCEL-KA-BLR-004",
        "ulpin": "29-572-0012-9844",
        "survey_no": "103/A",
        "owner_name": "Anil S. Deshmukh",
        "land_use": "Mixed Use",
        "area_sqm": 620.0,
        "perimeter_m": 100.5,
        "status": "flagged",
        "confidence_score": 0.73,
        "extracted_date": "2026-02-18",
        "source": "AI-SAM-Raw"
      },
      "geometry": {
        "type": "Polygon",
        "coordinates": [
          [
            [77.62075, 12.93510],
            [77.62115, 12.93510],
            [77.62115, 12.93480],
            [77.62075, 12.93480],
            [77.62075, 12.93510]
          ]
        ]
      }
    },
    {
      "type": "Feature",
      "id": "PARCEL-KA-BLR-005",
      "properties": {
        "id": "PARCEL-KA-BLR-005",
        "ulpin": "29-572-0012-9845",
        "survey_no": "103/B",
        "owner_name": "Meera Venkatesh",
        "land_use": "Residential",
        "area_sqm": 580.4,
        "perimeter_m": 96.2,
        "status": "flagged",
        "confidence_score": 0.78,
        "extracted_date": "2026-02-18",
        "source": "AI-SAM-Raw"
      },
      "geometry": {
        "type": "Polygon",
        "coordinates": [
          [
            [77.62105, 12.93510],
            [77.62145, 12.93510],
            [77.62145, 12.93480],
            [77.62105, 12.93480],
            [77.62105, 12.93510]
          ]
        ]
      }
    },
    {
      "type": "Feature",
      "id": "PARCEL-KA-BLR-006",
      "properties": {
        "id": "PARCEL-KA-BLR-006",
        "ulpin": "29-572-0012-9846",
        "survey_no": "104/1",
        "owner_name": "Gram Panchayat Public Land",
        "land_use": "Public / Open Space",
        "area_sqm": 950.0,
        "perimeter_m": 125.0,
        "status": "pending",
        "confidence_score": 0.89,
        "extracted_date": "2026-02-19",
        "source": "AI-SAM-HighRes"
      },
      "geometry": {
        "type": "Polygon",
        "coordinates": [
          [
            [77.62075, 12.93475],
            [77.62145, 12.93475],
            [77.62145, 12.93450],
            [77.62075, 12.93450],
            [77.62075, 12.93475]
          ]
        ]
      }
    }
  ]
}
